CCSDS_OMM_VERS = 2.0
CREATION_DATE  = 
ORIGINATOR     = 

OBJECT_NAME    = UNKNOWN
OBJECT_ID      = 
CENTER_NAME    = EARTH
REF_FRAME      = TEME
TIME_SYSTEM    = UTC
MEAN_ELEMENT_THEORY = SGP/SGP4

EPOCH          = 2025-10-26T09:51:45.113184
MEAN_MOTION    = 14.05821183
ECCENTRICITY   = .0172145
INCLINATION    = 99.9429
RA_OF_ASC_NODE = 286.4074
ARG_OF_PERICENTER = 299.3560
MEAN_ANOMALY   = 59.0506

EPHEMERIS_TYPE = 0
CLASSIFICATION_TYPE = U
NORAD_CAT_ID   = 87565
ELEMENT_SET_NO = 999
REV_AT_EPOCH   = 60978
BSTAR          = .11183E-2
MEAN_MOTION_DOT = .2035E-4
MEAN_MOTION_DDOT = 0

CCSDS_OMM_VERS = 2.0
CREATION_DATE  = 
ORIGINATOR     = 

OBJECT_NAME    = UNKNOWN
OBJECT_ID      = 
CENTER_NAME    = EARTH
REF_FRAME      = TEME
TIME_SYSTEM    = UTC
MEAN_ELEMENT_THEORY = SGP/SGP4

EPOCH          = 2025-11-11T06:32:50.059104
MEAN_MOTION    = 12.68539421
ECCENTRICITY   = .0055545
INCLINATION    = 101.9888
RA_OF_ASC_NODE = 131.4163
ARG_OF_PERICENTER = 315.2373
MEAN_ANOMALY   = 228.4144

EPHEMERIS_TYPE = 0
CLASSIFICATION_TYPE = U
NORAD_CAT_ID   = 87569
ELEMENT_SET_NO = 999
REV_AT_EPOCH   = 55447
BSTAR          = .95137E-4
MEAN_MOTION_DOT = -.3E-6
MEAN_MOTION_DDOT = 0

CCSDS_OMM_VERS = 2.0
CREATION_DATE  = 
ORIGINATOR     = 

OBJECT_NAME    = UNKNOWN
OBJECT_ID      = 
CENTER_NAME    = EARTH
REF_FRAME      = TEME
TIME_SYSTEM    = UTC
MEAN_ELEMENT_THEORY = SGP/SGP4

EPOCH          = 2025-11-02T21:57:36.121824
MEAN_MOTION    = 14.40025145
ECCENTRICITY   = .0021228
INCLINATION    = 74.0243
RA_OF_ASC_NODE = 176.5367
ARG_OF_PERICENTER = 224.6310
MEAN_ANOMALY   = 135.3136

EPHEMERIS_TYPE = 0
CLASSIFICATION_TYPE = U
NORAD_CAT_ID   = 87587
ELEMENT_SET_NO = 999
REV_AT_EPOCH   = 62807
BSTAR          = .90254E-4
MEAN_MOTION_DOT = .258E-5
MEAN_MOTION_DDOT = 0

CCSDS_OMM_VERS = 2.0
CREATION_DATE  = 
ORIGINATOR     = 

OBJECT_NAME    = UNKNOWN
OBJECT_ID      = 
CENTER_NAME    = EARTH
REF_FRAME      = TEME
TIME_SYSTEM    = UTC
MEAN_ELEMENT_THEORY = SGP/SGP4

EPOCH          = 2025-11-03T01:22:49.122336
MEAN_MOTION    = 14.10246965
ECCENTRICITY   = .0027121
INCLINATION    = 98.7933
RA_OF_ASC_NODE = 345.0708
ARG_OF_PERICENTER = 38.2754
MEAN_ANOMALY   = 352.5660

EPHEMERIS_TYPE = 0
CLASSIFICATION_TYPE = U
NORAD_CAT_ID   = 87590
ELEMENT_SET_NO = 999
REV_AT_EPOCH   = 14865
BSTAR          = .43607E-3
MEAN_MOTION_DOT = .732E-5
MEAN_MOTION_DDOT = 0

CCSDS_OMM_VERS = 2.0
CREATION_DATE  = 
ORIGINATOR     = 

OBJECT_NAME    = UNKNOWN
OBJECT_ID      = 
CENTER_NAME    = EARTH
REF_FRAME      = TEME
TIME_SYSTEM    = UTC
MEAN_ELEMENT_THEORY = SGP/SGP4

EPOCH          = 2025-11-11T03:30:14.388768
MEAN_MOTION    = 12.46847795
ECCENTRICITY   = .0633614
INCLINATION    = 66.0337
RA_OF_ASC_NODE = 210.6947
ARG_OF_PERICENTER = 152.7869
MEAN_ANOMALY   = 357.3498

EPHEMERIS_TYPE = 0
CLASSIFICATION_TYPE = U
NORAD_CAT_ID   = 87616
ELEMENT_SET_NO = 999
REV_AT_EPOCH   = 53229
BSTAR          = .24216E-2
MEAN_MOTION_DOT = .672E-5
MEAN_MOTION_DDOT = 0

CCSDS_OMM_VERS = 2.0
CREATION_DATE  = 
ORIGINATOR     = 

OBJECT_NAME    = UNKNOWN
OBJECT_ID      = 
CENTER_NAME    = EARTH
REF_FRAME      = TEME
TIME_SYSTEM    = UTC
MEAN_ELEMENT_THEORY = SGP/SGP4

EPOCH          = 2025-11-11T14:30:30.915936
MEAN_MOTION    = 14.69353156
ECCENTRICITY   = .0099553
INCLINATION    = 98.6764
RA_OF_ASC_NODE = 251.0799
ARG_OF_PERICENTER = 346.7555
MEAN_ANOMALY   = 13.1037

EPHEMERIS_TYPE = 0
CLASSIFICATION_TYPE = U
NORAD_CAT_ID   = 87624
ELEMENT_SET_NO = 999
REV_AT_EPOCH   = 57570
BSTAR          = .21815E-2
MEAN_MOTION_DOT = .13872E-3
MEAN_MOTION_DDOT = 0

CCSDS_OMM_VERS = 2.0
CREATION_DATE  = 
ORIGINATOR     = 

OBJECT_NAME    = UNKNOWN
OBJECT_ID      = 
CENTER_NAME    = EARTH
REF_FRAME      = TEME
TIME_SYSTEM    = UTC
MEAN_ELEMENT_THEORY = SGP/SGP4

EPOCH          = 2025-11-05T05:08:54.869280
MEAN_MOTION    = 14.60300391
ECCENTRICITY   = .0032257
INCLINATION    = 100.2705
RA_OF_ASC_NODE = 115.5219
ARG_OF_PERICENTER = 29.9948
MEAN_ANOMALY   = 330.3085

EPHEMERIS_TYPE = 0
CLASSIFICATION_TYPE = U
NORAD_CAT_ID   = 87650
ELEMENT_SET_NO = 999
REV_AT_EPOCH   = 7428
BSTAR          = .2456E-2
MEAN_MOTION_DOT = .11903E-3
MEAN_MOTION_DDOT = 0

CCSDS_OMM_VERS = 2.0
CREATION_DATE  = 
ORIGINATOR     = 

OBJECT_NAME    = UNKNOWN
OBJECT_ID      = 
CENTER_NAME    = EARTH
REF_FRAME      = TEME
TIME_SYSTEM    = UTC
MEAN_ELEMENT_THEORY = SGP/SGP4

EPOCH          = 2025-11-11T14:25:00.491232
MEAN_MOTION    = 14.27601210
ECCENTRICITY   = .006134
INCLINATION    = 70.8554
RA_OF_ASC_NODE = 73.9278
ARG_OF_PERICENTER = 318.7957
MEAN_ANOMALY   = 40.8548

EPHEMERIS_TYPE = 0
CLASSIFICATION_TYPE = U
NORAD_CAT_ID   = 87672
ELEMENT_SET_NO = 999
REV_AT_EPOCH   = 62001
BSTAR          = .18713E-2
MEAN_MOTION_DOT = .4655E-4
MEAN_MOTION_DDOT = 0

CCSDS_OMM_VERS = 2.0
CREATION_DATE  = 
ORIGINATOR     = 

OBJECT_NAME    = UNKNOWN
OBJECT_ID      = 
CENTER_NAME    = EARTH
REF_FRAME      = TEME
TIME_SYSTEM    = UTC
MEAN_ELEMENT_THEORY = SGP/SGP4

EPOCH          = 2025-11-03T09:29:40.411968
MEAN_MOTION    = 13.70977687
ECCENTRICITY   = .0159286
INCLINATION    = 66.7363
RA_OF_ASC_NODE = 191.8638
ARG_OF_PERICENTER = 188.7868
MEAN_ANOMALY   = 171.0406

EPHEMERIS_TYPE = 0
CLASSIFICATION_TYPE = U
NORAD_CAT_ID   = 87681
ELEMENT_SET_NO = 999
REV_AT_EPOCH   = 59644
BSTAR          = .1071E-2
MEAN_MOTION_DOT = .974E-5
MEAN_MOTION_DDOT = 0

CCSDS_OMM_VERS = 2.0
CREATION_DATE  = 
ORIGINATOR     = 

OBJECT_NAME    = UNKNOWN
OBJECT_ID      = 
CENTER_NAME    = EARTH
REF_FRAME      = TEME
TIME_SYSTEM    = UTC
MEAN_ELEMENT_THEORY = SGP/SGP4

EPOCH          = 2025-11-09T15:19:26.389632
MEAN_MOTION    = 14.00011737
ECCENTRICITY   = .0578236
INCLINATION    = 65.7945
RA_OF_ASC_NODE = 80.0278
ARG_OF_PERICENTER = 64.6334
MEAN_ANOMALY   = 301.3451

EPHEMERIS_TYPE = 0
CLASSIFICATION_TYPE = U
NORAD_CAT_ID   = 87690
ELEMENT_SET_NO = 999
REV_AT_EPOCH   = 60274
BSTAR          = .80701E-3
MEAN_MOTION_DOT = .5198E-4
MEAN_MOTION_DDOT = 0

CCSDS_OMM_VERS = 2.0
CREATION_DATE  = 
ORIGINATOR     = 

OBJECT_NAME    = UNKNOWN
OBJECT_ID      = 
CENTER_NAME    = EARTH
REF_FRAME      = TEME
TIME_SYSTEM    = UTC
MEAN_ELEMENT_THEORY = SGP/SGP4

EPOCH          = 2025-11-11T11:12:15.414048
MEAN_MOTION    = 14.63996129
ECCENTRICITY   = .0106097
INCLINATION    = 98.6745
RA_OF_ASC_NODE = 137.3853
ARG_OF_PERICENTER = 5.1140
MEAN_ANOMALY   = 55.6451

EPHEMERIS_TYPE = 0
CLASSIFICATION_TYPE = U
NORAD_CAT_ID   = 87706
ELEMENT_SET_NO = 999
REV_AT_EPOCH   = 57394
BSTAR          = .10282E-2
MEAN_MOTION_DOT = .5793E-4
MEAN_MOTION_DDOT = 0

CCSDS_OMM_VERS = 2.0
CREATION_DATE  = 
ORIGINATOR     = 

OBJECT_NAME    = UNKNOWN
OBJECT_ID      = 
CENTER_NAME    = EARTH
REF_FRAME      = TEME
TIME_SYSTEM    = UTC
MEAN_ELEMENT_THEORY = SGP/SGP4

EPOCH          = 2025-11-11T08:08:49.722432
MEAN_MOTION    = 14.92179541
ECCENTRICITY   = .0015238
INCLINATION    = 82.8666
RA_OF_ASC_NODE = 284.4175
ARG_OF_PERICENTER = 133.8300
MEAN_ANOMALY   = 226.4184

EPHEMERIS_TYPE = 0
CLASSIFICATION_TYPE = U
NORAD_CAT_ID   = 87725
ELEMENT_SET_NO = 999
REV_AT_EPOCH   = 62923
BSTAR          = .84573E-2
MEAN_MOTION_DOT = .87282E-3
MEAN_MOTION_DDOT = 0

