UNKNOWN                 
1 87565U          25299.41093881  .00002035  00000+0  11183-2 0  9997
2 87565  99.9429 286.4074 0172145 299.3560  59.0506 14.05821183609788
UNKNOWN                 
1 87569U          25315.27280161 -.00000030  00000+0  95137-4 0  9990
2 87569 101.9888 131.4163 0055545 315.2373 228.4144 12.68539421554470
UNKNOWN                 
1 87587U          25306.91500141  .00000258  00000+0  90254-4 0  9990
2 87587  74.0243 176.5367 0021228 224.6310 135.3136 14.40025145628076
UNKNOWN                 
1 87590U          25307.05751299  .00000732  00000+0  43607-3 0  9998
2 87590  98.7933 345.0708 0027121  38.2754 352.5660 14.10246965148658
UNKNOWN                 
1 87616U          25315.14599987  .00000672  00000+0  24216-2 0  9997
2 87616  66.0337 210.6947 0633614 152.7869 357.3498 12.46847795532298
UNKNOWN                 
1 87624U          25315.60452449  .00013872  00000+0  21815-2 0  9996
2 87624  98.6764 251.0799 0099553 346.7555  13.1037 14.69353156575700
UNKNOWN                 
1 87650U          25309.21452395  .00011903  00000+0  24560-2 0  9998
2 87650 100.2705 115.5219 0032257  29.9948 330.3085 14.60300391 74287
UNKNOWN                 
1 87672U          25315.60070013  .00004655  00000+0  18713-2 0  9994
2 87672  70.8554  73.9278 0061340 318.7957  40.8548 14.27601210620013
UNKNOWN                 
1 87681U          25307.39560662  .00000974  00000+0  10710-2 0  9994
2 87681  66.7363 191.8638 0159286 188.7868 171.0406 13.70977687596448
UNKNOWN                 
1 87690U          25313.63849988  .00005198  00000+0  80701-3 0  9990
2 87690  65.7945  80.0278 0578236  64.6334 301.3451 14.00011737602740
UNKNOWN                 
1 87706U          25315.46684507  .00005793  00000+0  10282-2 0  9992
2 87706  98.6745 137.3853 0106097   5.1140  55.6451 14.63996129573947
UNKNOWN                 
1 87725U          25315.33946438  .00087282  00000+0  84573-2 0  9990
2 87725  82.8666 284.4175 0015238 133.8300 226.4184 14.92179541629237
